NORAD_CAT_ID,OBJECT_NAME,OBJECT_TYPE,EPOCH,MEAN_MOTION,ECCENTRICITY,INCLINATION,RA_OF_ASC_NODE,ARG_OF_PERICENTER,MEAN_ANOMALY,BSTAR,MEAN_MOTION_DOT,MEAN_MOTION_DDOT,TLE_LINE0,TLE_LINE1,TLE_LINE2,SEMIMAJOR_AXIS,PERIOD,APOGEE,PERIGEE,DECAYED
54099.0,STARLINK-5198,PAYLOAD,2023-04-06 10:59:11,15.08849103,0.0001107,53.2186,89.1517,93.0977,267.0141,0.00015375,2.161e-05,0.0,0 STARLINK-5198,1 54099U 22136BA  23096.45777154  .00002161  00000-0  15375-3 0  9995,2 54099  53.2186  89.1517 0001107  93.0977 267.0141 15.08849103 25725,6917.853,95.437,540.483,538.952,0.0
54099.0,STARLINK-5198,PAYLOAD,2023-04-06 22:06:54,15.0883138,0.0001059,53.2187,87.0704,97.3521,262.7592,0.00012783,1.747e-05,0.0,0 STARLINK-5198,1 54099U 22136BA  23096.92146298  .00001747  00000-0  12783-3 0  9995,2 54099  53.2187  87.0704 0001059  97.3521 262.7592 15.08831380 26269,6917.907,95.438,540.504,539.039,0.0
54099.0,STARLINK-5198,PAYLOAD,2023-04-07 09:14:36,15.08841749,0.0001176,53.2173,84.989,91.7603,268.3524,0.00021069,3.067e-05,0.0,0 STARLINK-5198,1 54099U 22136BA  23097.38514009  .00003067  00000-0  21069-3 0  9999,2 54099  53.2173  84.9890 0001176  91.7603 268.3524 15.08841749 26330,6917.875,95.437,540.554,538.927,0.0
54099.0,STARLINK-5198,PAYLOAD,2023-04-08 10:40:45,15.08853319,0.0001192,53.2175,80.231,90.1102,270.0027,0.00022761,3.338e-05,0.0,0 STARLINK-5198,1 54099U 22136BA  23098.44497379  .00003338  00000-0  22761-3 0  9998,2 54099  53.2175  80.2310 0001192  90.1102 270.0027 15.08853319 26494,6917.84,95.437,540.529,538.88,0.0
54099.0,STARLINK-5198,PAYLOAD,2023-04-08 15:26:55,15.0883497,6.78e-05,53.2184,79.34,129.6888,230.4164,-0.00015881,-2.814e-05,0.0,0 STARLINK-5198,1 54099U 22136BA  23098.64369748 -.00002814  00000-0 -15881-3 0  9993,2 54099  53.2184  79.3400 0000678 129.6888 230.4164 15.08834970 26528,6917.896,95.438,540.23,539.292,0.0
54099.0,STARLINK-5198,PAYLOAD,2023-04-09 08:56:09,15.08847731,0.0001164,53.2178,76.0678,104.8456,255.2665,0.00025807,3.823e-05,0.0,0 STARLINK-5198,1 54099U 22136BA  23099.37233735  .00003823  00000-0  25807-3 0  9998,2 54099  53.2178  76.0678 0001164 104.8456 255.2665 15.08847731 26631,6917.857,95.437,540.527,538.917,0.0
54099.0,STARLINK-5198,PAYLOAD,2023-04-09 21:39:15,15.08840996,0.0001344,53.2178,73.6891,107.2979,252.8161,0.00024422,3.601e-05,0.0,0 STARLINK-5198,1 54099U 22136BA  23099.90226111  .00003601  00000-0  24422-3 0  9993,2 54099  53.2178  73.6891 0001344 107.2979 252.8161 15.08840996 26245,6917.877,95.437,540.672,538.813,0.0
54099.0,STARLINK-5198,PAYLOAD,2023-04-09 23:14:38,15.08839682,0.0001384,53.2184,73.3913,108.0365,252.0779,0.000222,3.247e-05,0.0,0 STARLINK-5198,1 54099U 22136BA  23099.96850174  .00003247  00000-0  22200-3 0  9999,2 54099  53.2184  73.3913 0001384 108.0365 252.0779 15.08839682 26726,6917.881,95.438,540.704,538.789,0.0
54099.0,STARLINK-5198,PAYLOAD,2023-04-10 10:22:20,15.08854818,0.0001281,53.2181,71.3105,107.1845,252.9288,0.00066665,0.00010342,0.0,0 STARLINK-5198,1 54099U 22136BA  23100.43217889  .00010342  00000-0  66665-3 0  9991,2 54099  53.2181  71.3105 0001281 107.1845 252.9288 15.08854818 26321,6917.835,95.437,540.586,538.814,0.0
54099.0,STARLINK-5198,PAYLOAD,2023-04-10 21:30:02,15.08844605,0.0001257,53.2185,69.2305,104.2855,255.8277,0.00033357,5.026e-05,0.0,0 STARLINK-5198,1 54099U 22136BA  23100.89586100  .00005026  00000-0  33357-3 0  9991,2 54099  53.2185  69.2305 0001257 104.2855 255.8277 15.08844605 26395,6917.866,95.437,540.601,538.862,0.0
54099.0,STARLINK-5198,PAYLOAD,2023-04-11 10:13:07,15.08852546,0.0001222,53.2178,66.8503,106.2496,253.863,0.00056007,8.64e-05,0.0,0 STARLINK-5198,1 54099U 22136BA  23101.42577828  .00008640  00000-0  56007-3 0  9990,2 54099  53.2178  66.8503 0001222 106.2496 253.8630 15.08852546 26478,6917.842,95.437,540.552,538.862,0.0
54099.0,STARLINK-5198,PAYLOAD,2023-04-11 21:20:51,15.08800561,0.0001517,53.2179,64.7681,98.2634,261.853,-0.00064517,-0.0001053,0.0,0 STARLINK-5198,1 54099U 22136BA  23101.88948138 -.00010530  00000-0 -64517-3 0  9994,2 54099  53.2179  64.7681 0001517  98.2634 261.8530 15.08800561 26540,6918.001,95.44,540.915,538.816,0.0
54099.0,STARLINK-5198,PAYLOAD,2023-04-12 03:42:23,15.0881991,0.0001546,53.2185,63.5791,102.4729,257.6436,0.00053652,8.256e-05,0.0,0 STARLINK-5198,1 54099U 22136BA  23102.15444367  .00008256  00000-0  53652-3 0  9998,2 54099  53.2185  63.5791 0001546 102.4729 257.6436 15.08819910 27054,6917.942,95.439,540.876,538.737,0.0
54099.0,STARLINK-5198,PAYLOAD,2023-04-12 06:53:10,15.08823725,0.0001471,53.2184,62.9843,99.8854,260.2304,0.00080704,0.00012574,0.0,0 STARLINK-5198,1 54099U 22136BA  23102.28692547  .00012574  00000-0  80704-3 0  9993,2 54099  53.2184  62.9843 0001471  99.8854 260.2304 15.08823725 26602,6917.93,95.439,540.813,538.778,0.0
54099.0,STARLINK-5198,PAYLOAD,2023-04-12 21:11:38,15.08872898,0.0001782,53.217,60.3103,92.459,267.6606,0.0024651,0.00039198,0.0,0 STARLINK-5198,1 54099U 22136BA  23102.88308427  .00039198  00000-0  24651-2 0  9999,2 54099  53.2170  60.3103 0001782  92.4590 267.6606 15.08872898 27162,6917.78,95.435,540.878,538.412,0.0
54099.0,STARLINK-5198,PAYLOAD,2023-04-13 06:43:56,15.08887631,0.0001567,53.2182,58.5249,102.0844,258.0324,0.0020344,0.0003228,0.0,0 STARLINK-5198,1 54099U 22136BA  23103.28051490  .00032280  00000-0  20344-2 0  9999,2 54099  53.2182  58.5249 0001567 102.0844 258.0324 15.08887631 26752,6917.735,95.435,540.684,538.516,0.0
54099.0,STARLINK-5198,PAYLOAD,2023-04-14 06:34:42,15.08875789,0.0001374,53.219,54.0654,90.3165,269.7984,0.0015654,0.00024738,0.0,0 STARLINK-5198,1 54099U 22136BA  23104.27410630  .00024738  00000-0  15654-2 0  9991,2 54099  53.2190  54.0654 0001374  90.3165 269.7984 15.08875789 27374,6917.771,95.435,540.587,538.685,0.0
54099.0,STARLINK-5198,PAYLOAD,2023-04-15 04:50:06,15.08865513,0.0001198,53.2188,49.9017,102.6411,257.4715,0.0015171,0.00023956,0.0,0 STARLINK-5198,1 54099U 22136BA  23105.20146410  .00023956  00000-0  15171-2 0  9992,2 54099  53.2188  49.9017 0001198 102.6411 257.4715 15.08865513 27046,6917.802,95.436,540.496,538.839,0.0
54099.0,STARLINK-5198,PAYLOAD,2023-04-15 20:43:57,15.08856374,0.0001766,53.2192,46.9291,106.2331,253.8855,0.0012941,0.00020377,0.0,0 STARLINK-5198,1 54099U 22136BA  23105.86386492  .00020377  00000-0  12941-2 0  9996,2 54099  53.2192  46.9291 0001766 106.2331 253.8855 15.08856374 27145,6917.83,95.437,540.917,538.474,0.0
54099.0,STARLINK-5198,PAYLOAD,2023-04-16 06:16:16,15.08860736,0.0001209,53.2185,45.1438,118.3476,241.7639,0.0011098,0.00017429,0.0,0 STARLINK-5198,1 54099U 22136BA  23106.26130302  .00017429  00000-0  11098-2 0  9994,2 54099  53.2185  45.1438 0001209 118.3476 241.7639 15.08860736 27207,6917.817,95.436,540.518,538.846,0.0
54099.0,STARLINK-5198,PAYLOAD,2023-04-17 04:31:41,15.08843914,0.0001305,53.2188,40.9823,130.5529,229.5577,0.00080853,0.00012605,0.0,0 STARLINK-5198,1 54099U 22136BA  23107.18866973  .00012605  00000-0  80853-3 0  9993,2 54099  53.2188  40.9823 0001305 130.5529 229.5577 15.08843914 27814,6917.868,95.437,540.636,538.831,0.0
54099.0,STARLINK-5198,PAYLOAD,2023-04-17 20:25:32,15.0883986,0.0001409,53.2184,38.0064,111.8576,248.2567,0.00036757,5.567e-05,0.0,0 STARLINK-5198,1 54099U 22136BA  23107.85107308  .00005567  00000-0  36757-3 0  9990,2 54099  53.2184  38.0064 0001409 111.8576 248.2567 15.08839860 27917,6917.881,95.438,540.721,538.771,0.0
54099.0,STARLINK-5198,PAYLOAD,2023-04-18 04:22:28,15.08846221,0.0001323,53.2186,36.5199,98.2166,261.8976,0.00044166,6.749e-05,0.0,0 STARLINK-5198,1 54099U 22136BA  23108.18227232  .00006749  00000-0  44166-3 0  9992,2 54099  53.2186  36.5199 0001323  98.2166 261.8976 15.08846221 27496,6917.861,95.437,540.642,538.811,0.0
54099.0,STARLINK-5198,PAYLOAD,2023-04-18 18:40:57,15.08840158,0.0001303,53.2182,33.8442,98.0151,262.0989,0.00021223,3.091e-05,0.0,0 STARLINK-5198,1 54099U 22136BA  23108.77843758  .00003091  00000-0  21223-3 0  9990,2 54099  53.2182  33.8442 0001303  98.0151 262.0989 15.08840158 27583,6917.88,95.438,540.646,538.844,0.0
54099.0,STARLINK-5198,PAYLOAD,2023-04-19 04:13:15,15.08848325,0.0001177,53.2177,32.059,101.641,258.4715,0.00046466,7.117e-05,0.0,0 STARLINK-5198,1 54099U 22136BA  23109.17587514  .00007117  00000-0  46466-3 0  9999,2 54099  53.2177  32.0590 0001177 101.6410 258.4715 15.08848325 27647,6917.855,95.437,540.534,538.906,0.0
54099.0,STARLINK-5198,PAYLOAD,2023-04-20 00:53:16,15.08851327,0.0001059,53.2184,28.194,87.9876,272.1238,0.00039262,5.968e-05,0.0,0 STARLINK-5198,1 54099U 22136BA  23110.03699302  .00005968  00000-0  39262-3 0  9993,2 54099  53.2184  28.1940 0001059  87.9876 272.1238 15.08851327 28247,6917.846,95.437,540.443,538.978,0.0
54099.0,STARLINK-5198,PAYLOAD,2023-04-21 03:54:50,15.08831516,0.0001005,53.2193,23.1394,95.7957,264.315,7.2065e-06,-1.73e-06,0.0,0 STARLINK-5198,1 54099U 22136BA  23111.16308334 -.00000173  00000-0  72065-5 0  9994,2 54099  53.2193  23.1394 0001005  95.7957 264.3150 15.08831516 28416,6917.906,95.438,540.467,539.076,0.0
54099.0,STARLINK-5198,PAYLOAD,2023-04-21 16:37:55,15.08842094,9.04e-05,53.218,20.7637,84.6042,275.5053,0.00031629,4.75e-05,0.0,0 STARLINK-5198,1 54099U 22136BA  23111.69300362  .00004750  00000-0  31629-3 0  9998,2 54099  53.2180  20.7637 0000904  84.6042 275.5053 15.08842094 28020,6917.874,95.437,540.364,539.114,0.0
54099.0,STARLINK-5198,PAYLOAD,2023-04-22 03:45:36,15.08869833,0.0001025,53.2183,18.6799,100.1108,260.0,0.0011495,0.00018069,0.0,0 STARLINK-5198,1 54099U 22136BA  23112.15667519  .00018069  00000-0  11495-2 0  9996,2 54099  53.2183  18.6799 0001025 100.1108 260.0000 15.08869833 28560,6917.789,95.436,540.363,538.945,0.0
54099.0,STARLINK-5198,PAYLOAD,2023-04-22 18:04:04,15.08855057,6.06e-05,53.2182,16.0048,63.4811,296.6243,0.00035775,5.413e-05,0.0,0 STARLINK-5198,1 54099U 22136BA  23112.75283491  .00005413  00000-0  35775-3 0  9992,2 54099  53.2182  16.0048 0000606  63.4811 296.6243 15.08855057 28651,6917.834,95.437,540.119,539.28,0.0
